{
    "links": {
        "self": "http://www.neowsapp.com/rest/v1/neo/3731243?api_key=iIulBulltgU6a56xZRHN4H3l9WmuAYTsLGpBGhQ2"
    },
    "id": "3731243",
    "neo_reference_id": "3731243",
    "name": "(2015 UC)",
    "designation": "2015 UC",
    "nasa_jpl_url": "http://ssd.jpl.nasa.gov/sbdb.cgi?sstr=3731243",
    "absolute_magnitude_h": 24.7,
    "estimated_diameter": {
        "kilometers": {
            "estimated_diameter_min": 0.0305179233,
            "estimated_diameter_max": 0.0682401509
        },
        "meters": {
            "estimated_diameter_min": 30.5179232594,
            "estimated_diameter_max": 68.2401509401
        },
        "miles": {
            "estimated_diameter_min": 0.0189629525,
            "estimated_diameter_max": 0.0424024508
        },
        "feet": {
            "estimated_diameter_min": 100.1244233463,
            "estimated_diameter_max": 223.8850168104
        }
    },
    "is_potentially_hazardous_asteroid": false,
    "close_approach_data": [
        {
            "close_approach_date": "1995-09-03",
            "close_approach_date_full": "1995-Sep-03 02:08",
            "epoch_date_close_approach": 810094080000,
            "relative_velocity": {
                "kilometers_per_second": "18.9238197652",
                "kilometers_per_hour": "68125.7511546728",
                "miles_per_hour": "42330.6924327466"
            },
            "miss_distance": {
                "astronomical": "0.4329526298",
                "lunar": "168.4185729922",
                "kilometers": "64768791.228978526",
                "miles": "40245460.6628786188"
            },
            "orbiting_body": "Earth"
        },
        {
            "close_approach_date": "2005-09-20",
            "close_approach_date_full": "2005-Sep-20 19:40",
            "epoch_date_close_approach": 1127245200000,
            "relative_velocity": {
                "kilometers_per_second": "11.1899598001",
                "kilometers_per_hour": "40283.8552802333",
                "miles_per_hour": "25030.821076765"
            },
            "miss_distance": {
                "astronomical": "0.1770036497",
                "lunar": "68.8544197333",
                "kilometers": "26479368.977346139",
                "miles": "16453516.9228051582"
            },
            "orbiting_body": "Earth"
        },
        {
            "close_approach_date": "2015-10-31",
            "close_approach_date_full": "2015-Oct-31 03:42",
            "epoch_date_close_approach": 1446262920000,
            "relative_velocity": {
                "kilometers_per_second": "6.5858568456",
                "kilometers_per_hour": "23709.0846441387",
                "miles_per_hour": "14731.9031779094"
            },
            "miss_distance": {
                "astronomical": "0.0548548859",
                "lunar": "21.3385506151",
                "kilometers": "8206174.089733033",
                "miles": "5099080.1318725354"
            },
            "orbiting_body": "Earth"
        },
        {
            "close_approach_date": "2025-12-06",
            "close_approach_date_full": "2025-Dec-06 19:37",
            "epoch_date_close_approach": 1765049820000,
            "relative_velocity": {
                "kilometers_per_second": "16.1576628613",
                "kilometers_per_hour": "58167.5863006195",
                "miles_per_hour": "36143.0760544044"
            },
            "miss_distance": {
                "astronomical": "0.3385189619",
                "lunar": "131.6838761791",
                "kilometers": "50641715.654851153",
                "miles": "31467302.9496977914"
            },
            "orbiting_body": "Earth"
        }
    ],
    "orbital_data": {
        "orbit_id": "28",
        "orbit_determination_date": "2017-04-06 08:31:11",
        "first_observation_date": "2015-10-16",
        "last_observation_date": "2015-11-18",
        "data_arc_in_days": 33,
        "observations_used": 162,
        "orbit_uncertainty": "6",
        "minimum_orbit_intersection": ".0454886",
        "jupiter_tisserand_invariant": "3.432",
        "epoch_osculation": "2459000.5",
        "eccentricity": ".5355525246270636",
        "semi_major_axis": "2.237521780474063",
        "inclination": "3.015010220140048",
        "ascending_node_longitude": "207.6241901655408",
        "orbital_period": "1222.501312728502",
        "perihelion_distance": "1.039211342033136",
        "perihelion_argument": "185.2821449167278",
        "aphelion_distance": "3.43583221891499",
        "perihelion_time": "2458549.982607699035",
        "mean_anomaly": "132.6675558870066",
        "mean_motion": ".2944782113947311",
        "equinox": "J2000",
        "orbit_class": {
            "orbit_class_type": "AMO",
            "orbit_class_description": "Near-Earth asteroid orbits similar to that of 1221 Amor",
            "orbit_class_range": "1.017 AU < q (perihelion) < 1.3 AU"
        }
    },
    "is_sentry_object": false
}